CCSDS_OMM_VERS = 2.0
CREATION_DATE  = 
ORIGINATOR     = 

OBJECT_NAME    = STARLINK-36782
OBJECT_ID      = 2026-032J
CENTER_NAME    = EARTH
REF_FRAME      = TEME
TIME_SYSTEM    = UTC
MEAN_ELEMENT_THEORY = SGP/SGP4

EPOCH          = 2026-03-01T11:38:58.536672
MEAN_MOTION    = 15.80886367
ECCENTRICITY   = .0001295
INCLINATION    = 97.2839
RA_OF_ASC_NODE = 246.5935
ARG_OF_PERICENTER = 80.5613
MEAN_ANOMALY   = 279.5801

EPHEMERIS_TYPE = 0
CLASSIFICATION_TYPE = U
NORAD_CAT_ID   = 67805
ELEMENT_SET_NO = 999
REV_AT_EPOCH   = 349
BSTAR          = .94524E-3
MEAN_MOTION_DOT = .18541E-2
MEAN_MOTION_DDOT = 0

CCSDS_OMM_VERS = 2.0
CREATION_DATE  = 
ORIGINATOR     = 

OBJECT_NAME    = STARLINK-36389
OBJECT_ID      = 2026-032K
CENTER_NAME    = EARTH
REF_FRAME      = TEME
TIME_SYSTEM    = UTC
MEAN_ELEMENT_THEORY = SGP/SGP4

EPOCH          = 2026-03-01T11:37:17.439168
MEAN_MOTION    = 15.80885609
ECCENTRICITY   = .0001308
INCLINATION    = 97.2835
RA_OF_ASC_NODE = 246.5948
ARG_OF_PERICENTER = 79.2778
MEAN_ANOMALY   = 280.8637

EPHEMERIS_TYPE = 0
CLASSIFICATION_TYPE = U
NORAD_CAT_ID   = 67806
ELEMENT_SET_NO = 999
REV_AT_EPOCH   = 349
BSTAR          = .96607E-3
MEAN_MOTION_DOT = .189583E-2
MEAN_MOTION_DDOT = 0

CCSDS_OMM_VERS = 2.0
CREATION_DATE  = 
ORIGINATOR     = 

OBJECT_NAME    = STARLINK-36382
OBJECT_ID      = 2026-032L
CENTER_NAME    = EARTH
REF_FRAME      = TEME
TIME_SYSTEM    = UTC
MEAN_ELEMENT_THEORY = SGP/SGP4

EPOCH          = 2026-03-01T11:35:54.099456
MEAN_MOTION    = 15.80887843
ECCENTRICITY   = .0001063
INCLINATION    = 97.2832
RA_OF_ASC_NODE = 246.5956
ARG_OF_PERICENTER = 86.3150
MEAN_ANOMALY   = 273.8240

EPHEMERIS_TYPE = 0
CLASSIFICATION_TYPE = U
NORAD_CAT_ID   = 67807
ELEMENT_SET_NO = 999
REV_AT_EPOCH   = 349
BSTAR          = .95787E-3
MEAN_MOTION_DOT = .187956E-2
MEAN_MOTION_DDOT = 0

CCSDS_OMM_VERS = 2.0
CREATION_DATE  = 
ORIGINATOR     = 

OBJECT_NAME    = STARLINK-36811
OBJECT_ID      = 2026-032M
CENTER_NAME    = EARTH
REF_FRAME      = TEME
TIME_SYSTEM    = UTC
MEAN_ELEMENT_THEORY = SGP/SGP4

EPOCH          = 2026-03-01T11:34:12.399744
MEAN_MOTION    = 15.80948691
ECCENTRICITY   = .0001391
INCLINATION    = 97.2832
RA_OF_ASC_NODE = 246.5981
ARG_OF_PERICENTER = 92.5853
MEAN_ANOMALY   = 267.5574

EPHEMERIS_TYPE = 0
CLASSIFICATION_TYPE = U
NORAD_CAT_ID   = 67808
ELEMENT_SET_NO = 999
REV_AT_EPOCH   = 349
BSTAR          = .11975E-2
MEAN_MOTION_DOT = .237E-2
MEAN_MOTION_DDOT = 0

CCSDS_OMM_VERS = 2.0
CREATION_DATE  = 
ORIGINATOR     = 

OBJECT_NAME    = STARLINK-36795
OBJECT_ID      = 2026-032N
CENTER_NAME    = EARTH
REF_FRAME      = TEME
TIME_SYSTEM    = UTC
MEAN_ELEMENT_THEORY = SGP/SGP4

EPOCH          = 2026-03-01T11:36:26.042400
MEAN_MOTION    = 15.75451458
ECCENTRICITY   = .0001344
INCLINATION    = 97.2849
RA_OF_ASC_NODE = 246.5961
ARG_OF_PERICENTER = 25.4001
MEAN_ANOMALY   = 334.7330

EPHEMERIS_TYPE = 0
CLASSIFICATION_TYPE = U
NORAD_CAT_ID   = 67809
ELEMENT_SET_NO = 999
REV_AT_EPOCH   = 349
BSTAR          = -.40495E-2
MEAN_MOTION_DOT = -.571894E-2
MEAN_MOTION_DDOT = 0

CCSDS_OMM_VERS = 2.0
CREATION_DATE  = 
ORIGINATOR     = 

OBJECT_NAME    = STARLINK-36807
OBJECT_ID      = 2026-032P
CENTER_NAME    = EARTH
REF_FRAME      = TEME
TIME_SYSTEM    = UTC
MEAN_ELEMENT_THEORY = SGP/SGP4

EPOCH          = 2026-03-01T11:31:14.507328
MEAN_MOTION    = 15.80895285
ECCENTRICITY   = .0001575
INCLINATION    = 97.2823
RA_OF_ASC_NODE = 246.5995
ARG_OF_PERICENTER = 82.3436
MEAN_ANOMALY   = 277.8011

EPHEMERIS_TYPE = 0
CLASSIFICATION_TYPE = U
NORAD_CAT_ID   = 67810
ELEMENT_SET_NO = 999
REV_AT_EPOCH   = 349
BSTAR          = .10681E-2
MEAN_MOTION_DOT = .210213E-2
MEAN_MOTION_DDOT = 0

CCSDS_OMM_VERS = 2.0
CREATION_DATE  = 
ORIGINATOR     = 

OBJECT_NAME    = STARLINK-36733
OBJECT_ID      = 2026-032Q
CENTER_NAME    = EARTH
REF_FRAME      = TEME
TIME_SYSTEM    = UTC
MEAN_ELEMENT_THEORY = SGP/SGP4

EPOCH          = 2026-03-01T11:29:26.933280
MEAN_MOTION    = 15.80940716
ECCENTRICITY   = .0001436
INCLINATION    = 97.2822
RA_OF_ASC_NODE = 246.6013
ARG_OF_PERICENTER = 72.9977
MEAN_ANOMALY   = 287.1448

EPHEMERIS_TYPE = 0
CLASSIFICATION_TYPE = U
NORAD_CAT_ID   = 67811
ELEMENT_SET_NO = 999
REV_AT_EPOCH   = 349
BSTAR          = .14068E-2
MEAN_MOTION_DOT = .279737E-2
MEAN_MOTION_DDOT = 0

CCSDS_OMM_VERS = 2.0
CREATION_DATE  = 
ORIGINATOR     = 

OBJECT_NAME    = STARLINK-36377
OBJECT_ID      = 2026-032R
CENTER_NAME    = EARTH
REF_FRAME      = TEME
TIME_SYSTEM    = UTC
MEAN_ELEMENT_THEORY = SGP/SGP4

EPOCH          = 2026-03-01T11:24:52.937280
MEAN_MOTION    = 15.80886769
ECCENTRICITY   = .0001617
INCLINATION    = 97.2822
RA_OF_ASC_NODE = 246.6056
ARG_OF_PERICENTER = 92.7472
MEAN_ANOMALY   = 267.3981

EPHEMERIS_TYPE = 0
CLASSIFICATION_TYPE = U
NORAD_CAT_ID   = 67812
ELEMENT_SET_NO = 999
REV_AT_EPOCH   = 349
BSTAR          = .76809E-3
MEAN_MOTION_DOT = .150026E-2
MEAN_MOTION_DDOT = 0

CCSDS_OMM_VERS = 2.0
CREATION_DATE  = 
ORIGINATOR     = 

OBJECT_NAME    = STARLINK-36732
OBJECT_ID      = 2026-032S
CENTER_NAME    = EARTH
REF_FRAME      = TEME
TIME_SYSTEM    = UTC
MEAN_ELEMENT_THEORY = SGP/SGP4

EPOCH          = 2026-03-01T11:26:16.809216
MEAN_MOTION    = 15.80917039
ECCENTRICITY   = .0001432
INCLINATION    = 97.2820
RA_OF_ASC_NODE = 246.6031
ARG_OF_PERICENTER = 98.0941
MEAN_ANOMALY   = 262.0490

EPHEMERIS_TYPE = 0
CLASSIFICATION_TYPE = U
NORAD_CAT_ID   = 67813
ELEMENT_SET_NO = 999
REV_AT_EPOCH   = 349
BSTAR          = .12494E-2
MEAN_MOTION_DOT = .247227E-2
MEAN_MOTION_DDOT = 0

CCSDS_OMM_VERS = 2.0
CREATION_DATE  = 
ORIGINATOR     = 

OBJECT_NAME    = STARLINK-36767
OBJECT_ID      = 2026-032T
CENTER_NAME    = EARTH
REF_FRAME      = TEME
TIME_SYSTEM    = UTC
MEAN_ELEMENT_THEORY = SGP/SGP4

EPOCH          = 2026-03-01T11:31:51.106368
MEAN_MOTION    = 15.75349648
ECCENTRICITY   = .0001232
INCLINATION    = 97.2823
RA_OF_ASC_NODE = 246.5987
ARG_OF_PERICENTER = 70.4659
MEAN_ANOMALY   = 289.6739

EPHEMERIS_TYPE = 0
CLASSIFICATION_TYPE = U
NORAD_CAT_ID   = 67814
ELEMENT_SET_NO = 999
REV_AT_EPOCH   = 349
BSTAR          = -.23121E-2
MEAN_MOTION_DOT = -.334173E-2
MEAN_MOTION_DDOT = 0

CCSDS_OMM_VERS = 2.0
CREATION_DATE  = 
ORIGINATOR     = 

OBJECT_NAME    = STARLINK-36797
OBJECT_ID      = 2026-032U
CENTER_NAME    = EARTH
REF_FRAME      = TEME
TIME_SYSTEM    = UTC
MEAN_ELEMENT_THEORY = SGP/SGP4

EPOCH          = 2026-03-01T11:23:07.456704
MEAN_MOTION    = 15.80927313
ECCENTRICITY   = .0001317
INCLINATION    = 97.2820
RA_OF_ASC_NODE = 246.6077
ARG_OF_PERICENTER = 77.0906
MEAN_ANOMALY   = 283.0509

EPHEMERIS_TYPE = 0
CLASSIFICATION_TYPE = U
NORAD_CAT_ID   = 67815
ELEMENT_SET_NO = 999
REV_AT_EPOCH   = 349
BSTAR          = .13298E-2
MEAN_MOTION_DOT = .263772E-2
MEAN_MOTION_DDOT = 0

CCSDS_OMM_VERS = 2.0
CREATION_DATE  = 
ORIGINATOR     = 

OBJECT_NAME    = STARLINK-36343
OBJECT_ID      = 2026-032V
CENTER_NAME    = EARTH
REF_FRAME      = TEME
TIME_SYSTEM    = UTC
MEAN_ELEMENT_THEORY = SGP/SGP4

EPOCH          = 2026-03-01T11:21:05.325984
MEAN_MOTION    = 15.80922884
ECCENTRICITY   = .0002539
INCLINATION    = 97.2819
RA_OF_ASC_NODE = 246.6080
ARG_OF_PERICENTER = 116.5567
MEAN_ANOMALY   = 243.5962

EPHEMERIS_TYPE = 0
CLASSIFICATION_TYPE = U
NORAD_CAT_ID   = 67816
ELEMENT_SET_NO = 999
REV_AT_EPOCH   = 349
BSTAR          = .10362E-2
MEAN_MOTION_DOT = .204057E-2
MEAN_MOTION_DDOT = 0

