STARLINK-36782          
1 67805U 26032J   26060.48539973  .00185410  00000+0  94524-3 0  9996
2 67805  97.2839 246.5935 0001295  80.5613 279.5801 15.80886367  3490
STARLINK-36389          
1 67806U 26032K   26060.48422962  .00189583  00000+0  96607-3 0  9995
2 67806  97.2835 246.5948 0001308  79.2778 280.8637 15.80885609  3493
STARLINK-36382          
1 67807U 26032L   26060.48326504  .00187956  00000+0  95787-3 0  9991
2 67807  97.2832 246.5956 0001063  86.3150 273.8240 15.80887843  3495
STARLINK-36811          
1 67808U 26032M   26060.48208796  .00237000  00000+0  11975-2 0  9996
2 67808  97.2832 246.5981 0001391  92.5853 267.5574 15.80948691  3496
STARLINK-36795          
1 67809U 26032N   26060.48363475 -.00571894  00000+0 -40495-2 0  9996
2 67809  97.2849 246.5961 0001344  25.4001 334.7330 15.75451458  3492
STARLINK-36807          
1 67810U 26032P   26060.48002902  .00210213  00000+0  10681-2 0  9990
2 67810  97.2823 246.5995 0001575  82.3436 277.8011 15.80895285  3492
STARLINK-36733          
1 67811U 26032Q   26060.47878395  .00279737  00000+0  14068-2 0  9996
2 67811  97.2822 246.6013 0001436  72.9977 287.1448 15.80940716  3493
STARLINK-36377          
1 67812U 26032R   26060.47561270  .00150026  00000+0  76809-3 0  9999
2 67812  97.2822 246.6056 0001617  92.7472 267.3981 15.80886769  3491
STARLINK-36732          
1 67813U 26032S   26060.47658344  .00247227  00000+0  12494-2 0  9998
2 67813  97.2820 246.6031 0001432  98.0941 262.0490 15.80917039  3490
STARLINK-36767          
1 67814U 26032T   26060.48045262 -.00334173  00000+0 -23121-2 0  9997
2 67814  97.2823 246.5987 0001232  70.4659 289.6739 15.75349648  3491
STARLINK-36797          
1 67815U 26032U   26060.47439186  .00263772  00000+0  13298-2 0  9997
2 67815  97.2820 246.6077 0001317  77.0906 283.0509 15.80927313  3492
STARLINK-36343          
1 67816U 26032V   26060.47297831  .00204057  00000+0  10362-2 0  9997
2 67816  97.2819 246.6080 0002539 116.5567 243.5962 15.80922884  3496
